[{"OBJECT_NAME":"STARLINK-3991","OBJECT_ID":"2022-052AV","EPOCH":"2026-03-09T19:30:59.562432","MEAN_MOTION":15.08836712,"ECCENTRICITY":0.00013326,"INCLINATION":53.2156,"RA_OF_ASC_NODE":258.772,"ARG_OF_PERICENTER":94.8187,"MEAN_ANOMALY":265.2958,"EPHEMERIS_TYPE":0,"CLASSIFICATION_TYPE":"U","NORAD_CAT_ID":52641,"ELEMENT_SET_NO":999,"REV_AT_EPOCH":21115,"BSTAR":3.5568773e-5,"MEAN_MOTION_DOT":2.78e-6,"MEAN_MOTION_DDOT":0},{"OBJECT_NAME":"NOAA 17 DEB","OBJECT_ID":"2002-032W","EPOCH":"2026-03-09T23:34:50.358720","MEAN_MOTION":15.06684432,"ECCENTRICITY":0.0012716,"INCLINATION":98.7039,"RA_OF_ASC_NODE":76.0065,"ARG_OF_PERICENTER":104.6864,"MEAN_ANOMALY":255.577,"EPHEMERIS_TYPE":0,"CLASSIFICATION_TYPE":"U","NORAD_CAT_ID":48181,"ELEMENT_SET_NO":999,"REV_AT_EPOCH":26088,"BSTAR":0.0078736038,"MEAN_MOTION_DOT":0.00118919,"MEAN_MOTION_DDOT":0}]
